start=new Date('2022-10-14T00:00:00.000Z').valueOf();
sats=[{"BSTAR":"-0.00016641000000","OBJECT_NAME":"STARLINK-3452","EPOCH":"2022-10-13T07:03:05.341248","MEAN_MOTION":"15.08852781","RCS_SIZE":"MEDIUM","GP_ID":"214995501","REF_FRAME":"TEME","ECCENTRICITY":"0.00012670","ELEMENT_SET_NO":"999","OBJECT_TYPE":"PAYLOAD","TLE_LINE1":"1 51744U 22016AG  22286.29381182 -.00002936  00000-0 -16641-3 0  9999","INCLINATION":"53.2184","TLE_LINE2":"2 51744  53.2184 140.9418 0001267  45.3235 314.7860 15.08852781 35856","PERIOD":"95.437","MEAN_ANOMALY":"314.7860","REV_AT_EPOCH":"3585","FILE":"3609209","EPHEMERIS_TYPE":"0","OBJECT_ID":"2022-016AG","SITE":"AFETR","SEMIMAJOR_AXIS":"6917.841","PERIAPSIS":"538.830","DECAY_DATE":null,"CLASSIFICATION_TYPE":"U","MEAN_MOTION_DDOT":"0.0000000000000","COUNTRY_CODE":"US","ARG_OF_PERICENTER":"45.3235","MEAN_ELEMENT_THEORY":"SGP4","MEAN_MOTION_DOT":"-0.00002936","TIME_SYSTEM":"UTC","NORAD_CAT_ID":"51744","LAUNCH_DATE":"2022-02-21","CENTER_NAME":"EARTH","RA_OF_ASC_NODE":"140.9418","APOAPSIS":"540.583"},{"GP_ID":"214995252","REF_FRAME":"TEME","ECCENTRICITY":"0.00016750","ELEMENT_SET_NO":"999","BSTAR":"-0.00052550000000","OBJECT_NAME":"STARLINK-3449","EPOCH":"2022-10-13T07:22:53.832000","MEAN_MOTION":"15.08883021","RCS_SIZE":"LARGE","TLE_LINE2":"2 51745  53.2178 140.8828 0001675  54.3844 305.7304 15.08883021 35857","INCLINATION":"53.2178","PERIOD":"95.435","MEAN_ANOMALY":"305.7304","OBJECT_TYPE":"PAYLOAD","TLE_LINE1":"1 51745U 22016AH  22286.30756750 -.00008652  00000-0 -52550-3 0  9999","DECAY_DATE":null,"CLASSIFICATION_TYPE":"U","MEAN_MOTION_DDOT":"0.0000000000000","COUNTRY_CODE":"US","ARG_OF_PERICENTER":"54.3844","REV_AT_EPOCH":"3585","FILE":"3609209","EPHEMERIS_TYPE":"0","OBJECT_ID":"2022-016AH","SITE":"AFETR","PERIAPSIS":"538.455","SEMIMAJOR_AXIS":"6917.749","APOAPSIS":"540.773","MEAN_ELEMENT_THEORY":"SGP4","MEAN_MOTION_DOT":"-0.00008652","TIME_SYSTEM":"UTC","NORAD_CAT_ID":"51745","LAUNCH_DATE":"2022-02-21","CENTER_NAME":"EARTH","RA_OF_ASC_NODE":"140.8828"},{"MEAN_MOTION":"15.08840670","RCS_SIZE":"LARGE","BSTAR":"0.00010927000000","OBJECT_NAME":"STARLINK-3502","EPOCH":"2022-10-12T23:48:30.582432","ELEMENT_SET_NO":"999","ECCENTRICITY":"0.00018330","GP_ID":"214994500","REF_FRAME":"TEME","TLE_LINE1":"1 51746U 22016AJ  22285.99202063  .00001451  00000-0  10927-3 0  9997","OBJECT_TYPE":"PAYLOAD","INCLINATION":"53.2154","TLE_LINE2":"2 51746  53.2154 132.2967 0001833  60.8114 299.3062 15.08840670 35941","PERIOD":"95.438","MEAN_ANOMALY":"299.3062","SITE":"AFETR","PERIAPSIS":"538.475","SEMIMAJOR_AXIS":"6917.878","FILE":"3609209","REV_AT_EPOCH":"3594","EPHEMERIS_TYPE":"0","OBJECT_ID":"2022-016AJ","COUNTRY_CODE":"US","ARG_OF_PERICENTER":"60.8114","CLASSIFICATION_TYPE":"U","DECAY_DATE":null,"MEAN_MOTION_DDOT":"0.0000000000000","CENTER_NAME":"EARTH","LAUNCH_DATE":"2022-02-21","RA_OF_ASC_NODE":"132.2967","MEAN_ELEMENT_THEORY":"SGP4","MEAN_MOTION_DOT":"0.00001451","NORAD_CAT_ID":"51746","TIME_SYSTEM":"UTC","APOAPSIS":"541.011"},{"TLE_LINE2":"2 51747  53.2170 138.2601 0001968  50.9067 309.2100 15.08853355 35945","INCLINATION":"53.2170","PERIOD":"95.437","MEAN_ANOMALY":"309.2100","OBJECT_TYPE":"PAYLOAD","TLE_LINE1":"1 51747U 22016AK  22286.89268997  .00004494  00000-0  30018-3 0  9999","GP_ID":"215027817","REF_FRAME":"TEME","ELEMENT_SET_NO":"999","ECCENTRICITY":"0.00019680","BSTAR":"0.00030018000000","OBJECT_NAME":"STARLINK-3446","EPOCH":"2022-10-13T21:25:28.413408","MEAN_MOTION":"15.08853355","RCS_SIZE":"LARGE","APOAPSIS":"541.066","MEAN_ELEMENT_THEORY":"SGP4","MEAN_MOTION_DOT":"0.00004494","TIME_SYSTEM":"UTC","NORAD_CAT_ID":"51747","LAUNCH_DATE":"2022-02-21","CENTER_NAME":"EARTH","RA_OF_ASC_NODE":"138.2601","CLASSIFICATION_TYPE":"U","DECAY_DATE":null,"MEAN_MOTION_DDOT":"0.0000000000000","COUNTRY_CODE":"US","ARG_OF_PERICENTER":"50.9067","REV_AT_EPOCH":"3594","FILE":"3609636","OBJECT_ID":"2022-016AK","EPHEMERIS_TYPE":"0","SITE":"AFETR","SEMIMAJOR_AXIS":"6917.840","PERIAPSIS":"538.343"},{"APOAPSIS":"541.135","LAUNCH_DATE":"2022-02-21","CENTER_NAME":"EARTH","RA_OF_ASC_NODE":"128.4725","MEAN_ELEMENT_THEORY":"SGP4","MEAN_MOTION_DOT":"0.00001470","TIME_SYSTEM":"UTC","NORAD_CAT_ID":"51748","COUNTRY_CODE":"US","ARG_OF_PERICENTER":"49.6483","DECAY_DATE":null,"CLASSIFICATION_TYPE":"U","MEAN_MOTION_DDOT":"0.0000000000000","SITE":"AFETR","SEMIMAJOR_AXIS":"6917.890","PERIAPSIS":"538.376","FILE":"3609636","REV_AT_EPOCH":"3607","EPHEMERIS_TYPE":"0","OBJECT_ID":"2022-016AL","TLE_LINE2":"2 51748  53.2159 128.4725 0001994  49.6483 310.4683 15.08836773 36077","INCLINATION":"53.2159","PERIOD":"95.438","MEAN_ANOMALY":"310.4683","OBJECT_TYPE":"PAYLOAD","TLE_LINE1":"1 51748U 22016AL  22286.84577527  .00001470  00000-0  11043-3 0  9995","ECCENTRICITY":"0.00019940","ELEMENT_SET_NO":"999","GP_ID":"215028067","REF_FRAME":"TEME","MEAN_MOTION":"15.08836773","RCS_SIZE":"LARGE","BSTAR":"0.00011043000000","OBJECT_NAME":"STARLINK-3501","EPOCH":"2022-10-13T20:17:54.983328"},{"TIME_SYSTEM":"UTC","NORAD_CAT_ID":"51749","MEAN_MOTION_DOT":"-0.00004670","MEAN_ELEMENT_THEORY":"SGP4","RA_OF_ASC_NODE":"138.4240","LAUNCH_DATE":"2022-02-21","CENTER_NAME":"EARTH","APOAPSIS":"541.047","OBJECT_ID":"2022-016AM","EPHEMERIS_TYPE":"0","FILE":"3609636","REV_AT_EPOCH":"3593","SEMIMAJOR_AXIS":"6917.800","PERIAPSIS":"538.284","SITE":"AFETR","MEAN_MOTION_DDOT":"0.0000000000000","CLASSIFICATION_TYPE":"U","DECAY_DATE":null,"ARG_OF_PERICENTER":"56.0242","COUNTRY_CODE":"US","TLE_LINE1":"1 51749U 22016AM  22286.85684272 -.00004670  00000-0 -27529-3 0  9996","OBJECT_TYPE":"PAYLOAD","MEAN_ANOMALY":"304.0940","PERIOD":"95.436","TLE_LINE2":"2 51749  53.2153 138.4240 0001997  56.0242 304.0940 15.08866217 35938","INCLINATION":"53.2153","EPOCH":"2022-10-13T20:33:51.211008","OBJECT_NAME":"STARLINK-3451","BSTAR":"-0.00027529000000","RCS_SIZE":"LARGE","MEAN_MOTION":"15.08866217","REF_FRAME":"TEME","GP_ID":"215028318","ECCENTRICITY":"0.00019970","ELEMENT_SET_NO":"999"},{"ARG_OF_PERICENTER":"43.0298","COUNTRY_CODE":"US","MEAN_MOTION_DDOT":"0.0000000000000","DECAY_DATE":null,"CLASSIFICATION_TYPE":"U","PERIAPSIS":"538.156","SEMIMAJOR_AXIS":"6917.853","SITE":"AFETR","EPHEMERIS_TYPE":"0","OBJECT_ID":"2022-016AN","REV_AT_EPOCH":"3607","FILE":"3609636","APOAPSIS":"541.280","RA_OF_ASC_NODE":"128.5051","CENTER_NAME":"EARTH","LAUNCH_DATE":"2022-02-21","NORAD_CAT_ID":"51750","TIME_SYSTEM":"UTC","MEAN_MOTION_DOT":"0.00005692","MEAN_ELEMENT_THEORY":"SGP4","ECCENTRICITY":"0.00022580","ELEMENT_SET_NO":"999","REF_FRAME":"TEME","GP_ID":"215028554","RCS_SIZE":"LARGE","MEAN_MOTION":"15.08848835","EPOCH":"2022-10-13T20:07:19.759296","OBJECT_NAME":"STARLINK-3505","BSTAR":"0.00037533000000","MEAN_ANOMALY":"317.0871","PERIOD":"95.437","TLE_LINE2":"2 51750  53.2149 128.5051 0002258  43.0298 317.0871 15.08848835 36072","INCLINATION":"53.2149","TLE_LINE1":"1 51750U 22016AN  22286.83842314  .00005692  00000-0  37533-3 0  9998","OBJECT_TYPE":"PAYLOAD"},{"EPOCH":"2022-10-13T20:23:12.921504","OBJECT_NAME":"STARLINK-3506","BSTAR":"-0.00002262100000","RCS_SIZE":"LARGE","MEAN_MOTION":"15.08831847","REF_FRAME":"TEME","GP_ID":"215027317","ECCENTRICITY":"0.00015330","ELEMENT_SET_NO":"999","OBJECT_TYPE":"PAYLOAD","TLE_LINE1":"1 51751U 22016AP  22286.84945511 -.00000648  00000-0 -22621-4 0  9994","PERIOD":"95.438","MEAN_ANOMALY":"313.3400","INCLINATION":"53.2174","TLE_LINE2":"2 51751  53.2174 128.4576 0001533  46.7720 313.3400 15.08831847 36079","EPHEMERIS_TYPE":"0","OBJECT_ID":"2022-016AP","REV_AT_EPOCH":"3607","FILE":"3609636","SEMIMAJOR_AXIS":"6917.905","PERIAPSIS":"538.710","SITE":"AFETR","MEAN_MOTION_DDOT":"0.0000000000000","CLASSIFICATION_TYPE":"U","DECAY_DATE":null,"ARG_OF_PERICENTER":"46.7720","COUNTRY_CODE":"US","NORAD_CAT_ID":"51751","TIME_SYSTEM":"UTC","MEAN_MOTION_DOT":"-0.00000648","MEAN_ELEMENT_THEORY":"SGP4","RA_OF_ASC_NODE":"128.4576","CENTER_NAME":"EARTH","LAUNCH_DATE":"2022-02-21","APOAPSIS":"540.831"},{"BSTAR":"0.00019955000000","OBJECT_NAME":"STARLINK-3511","EPOCH":"2022-10-13T20:02:01.333824","MEAN_MOTION":"15.08838560","RCS_SIZE":"MEDIUM","GP_ID":"215027567","REF_FRAME":"TEME","ELEMENT_SET_NO":"999","ECCENTRICITY":"0.00018710","OBJECT_TYPE":"PAYLOAD","TLE_LINE1":"1 51752U 22016AQ  22286.83473766  .00002889  00000-0  19955-3 0  9994","TLE_LINE2":"2 51752  53.2165 128.5221 0001871  53.1052 307.0112 15.08838560 36072","INCLINATION":"53.2165","PERIOD":"95.438","MEAN_ANOMALY":"307.0112","FILE":"3609636","REV_AT_EPOCH":"3607","EPHEMERIS_TYPE":"0","OBJECT_ID":"2022-016AQ","SITE":"AFETR","SEMIMAJOR_AXIS":"6917.885","PERIAPSIS":"538.455","DECAY_DATE":null,"CLASSIFICATION_TYPE":"U","MEAN_MOTION_DDOT":"0.0000000000000","COUNTRY_CODE":"US","ARG_OF_PERICENTER":"53.1052","MEAN_ELEMENT_THEORY":"SGP4","MEAN_MOTION_DOT":"0.00002889","TIME_SYSTEM":"UTC","NORAD_CAT_ID":"51752","CENTER_NAME":"EARTH","LAUNCH_DATE":"2022-02-21","RA_OF_ASC_NODE":"128.5221","APOAPSIS":"541.044"},{"APOAPSIS":"541.185","RA_OF_ASC_NODE":"128.4878","LAUNCH_DATE":"2022-02-21","CENTER_NAME":"EARTH","TIME_SYSTEM":"UTC","NORAD_CAT_ID":"51753","MEAN_MOTION_DOT":"0.00003707","MEAN_ELEMENT_THEORY":"SGP4","ARG_OF_PERICENTER":"58.0414","COUNTRY_CODE":"US","MEAN_MOTION_DDOT":"0.0000000000000","CLASSIFICATION_TYPE":"U","DECAY_DATE":null,"SEMIMAJOR_AXIS":"6917.856","PERIAPSIS":"538.258","SITE":"AFETR","EPHEMERIS_TYPE":"0","OBJECT_ID":"2022-016AR","FILE":"3609636","REV_AT_EPOCH":"3607","PERIOD":"95.437","MEAN_ANOMALY":"302.0783","INCLINATION":"53.2138","TLE_LINE2":"2 51753  53.2138 128.4878 0002115  58.0414 302.0783 15.08847845 36073","TLE_LINE1":"1 51753U 22016AR  22286.84209915  .00003707  00000-0  25085-3 0  9990","OBJECT_TYPE":"PAYLOAD","ELEMENT_SET_NO":"999","ECCENTRICITY":"0.00021150","REF_FRAME":"TEME","GP_ID":"215028819","RCS_SIZE":"LARGE","MEAN_MOTION":"15.08847845","EPOCH":"2022-10-13T20:12:37.366560","OBJECT_NAME":"STARLINK-3507","BSTAR":"0.00025085000000"}];
